start=new Date('2022-06-25T00:00:00.000Z').valueOf();
sats=[{"REF_FRAME":"TEME","SEMIMAJOR_AXIS":"6918.011","TLE_LINE2":"2 51957  53.2149 346.4439 0001695  53.5868 311.6733 15.08797421  1304","GP_ID":"206790383","MEAN_MOTION_DDOT":"0.0000000000000","CENTER_NAME":"EARTH","MEAN_ANOMALY":"311.6733","NORAD_CAT_ID":"51957","CLASSIFICATION_TYPE":"U","APOAPSIS":"541.048","COUNTRY_CODE":"US","BSTAR":"0.00296540000000","ELEMENT_SET_NO":"999","OBJECT_ID":"2022-025B","OBJECT_NAME":"STARLINK-3694","EPHEMERIS_TYPE":"0","DECAY_DATE":null,"SITE":"AFETR","ECCENTRICITY":"0.00016950","MEAN_MOTION":"15.08797421","OBJECT_TYPE":"PAYLOAD","PERIAPSIS":"538.703","ARG_OF_PERICENTER":"53.5868","FILE":"3501798","RCS_SIZE":"LARGE","EPOCH":"2022-06-24T22:00:01.999584","LAUNCH_DATE":"2022-03-09","TIME_SYSTEM":"UTC","MEAN_MOTION_DOT":"0.00047167","REV_AT_EPOCH":"130","INCLINATION":"53.2149","PERIOD":"95.440","RA_OF_ASC_NODE":"346.4439","MEAN_ELEMENT_THEORY":"SGP4","TLE_LINE1":"1 51957U 22025B   22175.91668981  .00047167  00000-0  29654-2 0  9996"},{"CLASSIFICATION_TYPE":"U","COUNTRY_CODE":"US","APOAPSIS":"541.173","OBJECT_ID":"2022-025C","ELEMENT_SET_NO":"999","BSTAR":"0.00168620000000","MEAN_ANOMALY":"239.3970","NORAD_CAT_ID":"51958","CENTER_NAME":"EARTH","REF_FRAME":"TEME","TLE_LINE2":"2 51958  53.2171 346.4508 0002041  45.9355 239.3970 15.08834800  1301","SEMIMAJOR_AXIS":"6917.896","MEAN_MOTION_DDOT":"0.0000000000000","GP_ID":"206790384","TIME_SYSTEM":"UTC","LAUNCH_DATE":"2022-03-09","MEAN_MOTION_DOT":"0.00026646","INCLINATION":"53.2171","REV_AT_EPOCH":"130","TLE_LINE1":"1 51958U 22025C   22175.91668981  .00026646  00000-0  16862-2 0  9993","MEAN_ELEMENT_THEORY":"SGP4","PERIOD":"95.438","RA_OF_ASC_NODE":"346.4508","ARG_OF_PERICENTER":"45.9355","PERIAPSIS":"538.349","FILE":"3501798","RCS_SIZE":"LARGE","EPOCH":"2022-06-24T22:00:01.999584","ECCENTRICITY":"0.00020410","MEAN_MOTION":"15.08834800","OBJECT_TYPE":"PAYLOAD","OBJECT_NAME":"STARLINK-3692","DECAY_DATE":null,"EPHEMERIS_TYPE":"0","SITE":"AFETR"},{"TLE_LINE2":"2 51959  53.2157 346.4455 0001887  45.5162 299.7864 15.08812308  1307","SEMIMAJOR_AXIS":"6917.965","MEAN_MOTION_DDOT":"0.0000000000000","GP_ID":"206789381","REF_FRAME":"TEME","CENTER_NAME":"EARTH","NORAD_CAT_ID":"51959","MEAN_ANOMALY":"299.7864","COUNTRY_CODE":"US","APOAPSIS":"541.135","OBJECT_ID":"2022-025D","BSTAR":"0.00298170000000","ELEMENT_SET_NO":"999","CLASSIFICATION_TYPE":"U","SITE":"AFETR","OBJECT_NAME":"STARLINK-3704","DECAY_DATE":null,"EPHEMERIS_TYPE":"0","OBJECT_TYPE":"PAYLOAD","ECCENTRICITY":"0.00018870","MEAN_MOTION":"15.08812308","RCS_SIZE":"LARGE","EPOCH":"2022-06-24T22:00:01.999584","ARG_OF_PERICENTER":"45.5162","PERIAPSIS":"538.525","FILE":"3501798","INCLINATION":"53.2157","REV_AT_EPOCH":"130","TLE_LINE1":"1 51959U 22025D   22175.91668981  .00047450  00000-0  29817-2 0  9994","PERIOD":"95.439","RA_OF_ASC_NODE":"346.4455","MEAN_ELEMENT_THEORY":"SGP4","LAUNCH_DATE":"2022-03-09","TIME_SYSTEM":"UTC","MEAN_MOTION_DOT":"0.00047450"},{"MEAN_MOTION_DDOT":"0.0000000000000","GP_ID":"206789632","TLE_LINE2":"2 51960  53.2130 346.4394 0001787  45.3773 339.9151 15.08809770  1302","SEMIMAJOR_AXIS":"6917.973","REF_FRAME":"TEME","CENTER_NAME":"EARTH","NORAD_CAT_ID":"51960","MEAN_ANOMALY":"339.9151","OBJECT_ID":"2022-025E","BSTAR":"0.00298080000000","ELEMENT_SET_NO":"999","COUNTRY_CODE":"US","APOAPSIS":"541.074","CLASSIFICATION_TYPE":"U","SITE":"AFETR","DECAY_DATE":null,"EPHEMERIS_TYPE":"0","OBJECT_NAME":"STARLINK-3691","OBJECT_TYPE":"PAYLOAD","MEAN_MOTION":"15.08809770","ECCENTRICITY":"0.00017870","EPOCH":"2022-06-24T22:00:01.999584","RCS_SIZE":"LARGE","FILE":"3501798","ARG_OF_PERICENTER":"45.3773","PERIAPSIS":"538.602","TLE_LINE1":"1 51960U 22025E   22175.91668981  .00047432  00000-0  29808-2 0  9996","PERIOD":"95.439","RA_OF_ASC_NODE":"346.4394","MEAN_ELEMENT_THEORY":"SGP4","INCLINATION":"53.2130","REV_AT_EPOCH":"130","MEAN_MOTION_DOT":"0.00047432","LAUNCH_DATE":"2022-03-09","TIME_SYSTEM":"UTC"},{"ECCENTRICITY":"0.00016850","MEAN_MOTION":"15.08794329","OBJECT_TYPE":"PAYLOAD","OBJECT_NAME":"STARLINK-3689","DECAY_DATE":null,"EPHEMERIS_TYPE":"0","SITE":"AFETR","LAUNCH_DATE":"2022-03-09","TIME_SYSTEM":"UTC","MEAN_MOTION_DOT":"0.00051282","INCLINATION":"53.2165","REV_AT_EPOCH":"130","TLE_LINE1":"1 51961U 22025F   22175.91668981  .00051282  00000-0  32209-2 0  9994","PERIOD":"95.440","RA_OF_ASC_NODE":"346.4479","MEAN_ELEMENT_THEORY":"SGP4","ARG_OF_PERICENTER":"44.8799","PERIAPSIS":"538.719","FILE":"3501798","RCS_SIZE":"LARGE","EPOCH":"2022-06-24T22:00:01.999584","CENTER_NAME":"EARTH","REF_FRAME":"TEME","TLE_LINE2":"2 51961  53.2165 346.4479 0001685  44.8799 260.3776 15.08794329  1307","SEMIMAJOR_AXIS":"6918.020","MEAN_MOTION_DDOT":"0.0000000000000","GP_ID":"206790596","CLASSIFICATION_TYPE":"U","COUNTRY_CODE":"US","APOAPSIS":"541.051","OBJECT_ID":"2022-025F","ELEMENT_SET_NO":"999","BSTAR":"0.00322090000000","MEAN_ANOMALY":"260.3776","NORAD_CAT_ID":"51961"},{"MEAN_ANOMALY":"17.5720","NORAD_CAT_ID":"51962","CLASSIFICATION_TYPE":"U","APOAPSIS":"541.083","COUNTRY_CODE":"US","BSTAR":"0.00298380000000","ELEMENT_SET_NO":"999","OBJECT_ID":"2022-025G","REF_FRAME":"TEME","SEMIMAJOR_AXIS":"6917.932","TLE_LINE2":"2 51962  53.2132 346.4390 0001859  42.5006  17.5720 15.08823038  1304","GP_ID":"206790732","MEAN_MOTION_DDOT":"0.0000000000000","CENTER_NAME":"EARTH","PERIAPSIS":"538.511","ARG_OF_PERICENTER":"42.5006","FILE":"3501798","RCS_SIZE":"LARGE","EPOCH":"2022-06-24T22:00:01.999584","TIME_SYSTEM":"UTC","LAUNCH_DATE":"2022-03-09","MEAN_MOTION_DOT":"0.00047498","REV_AT_EPOCH":"130","INCLINATION":"53.2132","PERIOD":"95.439","RA_OF_ASC_NODE":"346.4390","MEAN_ELEMENT_THEORY":"SGP4","TLE_LINE1":"1 51962U 22025G   22175.91668981  .00047498  00000-0  29838-2 0  9993","OBJECT_NAME":"STARLINK-3697","EPHEMERIS_TYPE":"0","DECAY_DATE":null,"SITE":"AFETR","ECCENTRICITY":"0.00018590","MEAN_MOTION":"15.08823038","OBJECT_TYPE":"PAYLOAD"},{"PERIAPSIS":"538.461","ARG_OF_PERICENTER":"41.4142","FILE":"3501798","RCS_SIZE":"LARGE","EPOCH":"2022-06-24T22:00:01.999584","TIME_SYSTEM":"UTC","LAUNCH_DATE":"2022-03-09","MEAN_MOTION_DOT":"0.00048165","REV_AT_EPOCH":"130","INCLINATION":"53.2174","PERIOD":"95.439","MEAN_ELEMENT_THEORY":"SGP4","RA_OF_ASC_NODE":"346.4488","TLE_LINE1":"1 51963U 22025H   22175.91668981  .00048165  00000-0  30258-2 0  9994","OBJECT_NAME":"STARLINK-3675","EPHEMERIS_TYPE":"0","DECAY_DATE":null,"SITE":"AFETR","ECCENTRICITY":"0.00019630","MEAN_MOTION":"15.08815794","OBJECT_TYPE":"PAYLOAD","MEAN_ANOMALY":"283.9362","NORAD_CAT_ID":"51963","CLASSIFICATION_TYPE":"U","APOAPSIS":"541.177","COUNTRY_CODE":"US","BSTAR":"0.00302580000000","ELEMENT_SET_NO":"999","OBJECT_ID":"2022-025H","REF_FRAME":"TEME","SEMIMAJOR_AXIS":"6917.954","TLE_LINE2":"2 51963  53.2174 346.4488 0001963  41.4142 283.9362 15.08815794  1305","GP_ID":"206790702","MEAN_MOTION_DDOT":"0.0000000000000","CENTER_NAME":"EARTH"},{"CENTER_NAME":"EARTH","MEAN_MOTION_DDOT":"0.0000000000000","GP_ID":"206790838","TLE_LINE2":"2 51964  53.2172 346.4289 0001959  41.6695  63.5928 15.08830394  1306","SEMIMAJOR_AXIS":"6917.910","REF_FRAME":"TEME","OBJECT_ID":"2022-025J","BSTAR":"0.00232590000000","ELEMENT_SET_NO":"999","COUNTRY_CODE":"US","APOAPSIS":"541.130","CLASSIFICATION_TYPE":"U","NORAD_CAT_ID":"51964","MEAN_ANOMALY":"63.5928","OBJECT_TYPE":"PAYLOAD","MEAN_MOTION":"15.08830394","ECCENTRICITY":"0.00019590","SITE":"AFETR","DECAY_DATE":null,"EPHEMERIS_TYPE":"0","OBJECT_NAME":"STARLINK-3690","TLE_LINE1":"1 51964U 22025J   22175.91668981  .00036914  00000-0  23259-2 0  9997","PERIOD":"95.438","MEAN_ELEMENT_THEORY":"SGP4","RA_OF_ASC_NODE":"346.4289","INCLINATION":"53.2172","REV_AT_EPOCH":"130","MEAN_MOTION_DOT":"0.00036914","TIME_SYSTEM":"UTC","LAUNCH_DATE":"2022-03-09","EPOCH":"2022-06-24T22:00:01.999584","RCS_SIZE":"LARGE","FILE":"3501798","ARG_OF_PERICENTER":"41.6695","PERIAPSIS":"538.420"},{"NORAD_CAT_ID":"51965","MEAN_ANOMALY":"357.1788","APOAPSIS":"540.966","COUNTRY_CODE":"US","ELEMENT_SET_NO":"999","BSTAR":"0.00029536000000","OBJECT_ID":"2022-025K","CLASSIFICATION_TYPE":"U","SEMIMAJOR_AXIS":"6917.893","TLE_LINE2":"2 51965  53.2145 346.4399 0001746  48.1306 357.1788 15.08835719  1306","GP_ID":"206790944","MEAN_MOTION_DDOT":"0.0000000000000","REF_FRAME":"TEME","CENTER_NAME":"EARTH","RCS_SIZE":"LARGE","EPOCH":"2022-06-24T22:00:01.999584","PERIAPSIS":"538.551","ARG_OF_PERICENTER":"48.1306","FILE":"3501798","REV_AT_EPOCH":"130","INCLINATION":"53.2145","PERIOD":"95.438","RA_OF_ASC_NODE":"346.4399","MEAN_ELEMENT_THEORY":"SGP4","TLE_LINE1":"1 51965U 22025K   22175.91668981  .00004415  00000-0  29536-3 0  9994","TIME_SYSTEM":"UTC","LAUNCH_DATE":"2022-03-09","MEAN_MOTION_DOT":"0.00004415","SITE":"AFETR","OBJECT_NAME":"STARLINK-3696","EPHEMERIS_TYPE":"0","DECAY_DATE":null,"OBJECT_TYPE":"PAYLOAD","ECCENTRICITY":"0.00017460","MEAN_MOTION":"15.08835719"},{"INCLINATION":"53.2167","REV_AT_EPOCH":"130","TLE_LINE1":"1 51966U 22025L   22175.91668981  .00009748  00000-0  62955-3 0  9991","RA_OF_ASC_NODE":"346.4276","PERIOD":"95.437","MEAN_ELEMENT_THEORY":"SGP4","TIME_SYSTEM":"UTC","LAUNCH_DATE":"2022-03-09","MEAN_MOTION_DOT":"0.00009748","RCS_SIZE":"LARGE","EPOCH":"2022-06-24T22:00:01.999584","ARG_OF_PERICENTER":"47.9252","PERIAPSIS":"538.594","FILE":"3501798","OBJECT_TYPE":"PAYLOAD","ECCENTRICITY":"0.00016250","MEAN_MOTION":"15.08848923","SITE":"AFETR","OBJECT_NAME":"STARLINK-3699","DECAY_DATE":null,"EPHEMERIS_TYPE":"0","COUNTRY_CODE":"US","APOAPSIS":"540.842","OBJECT_ID":"2022-025L","BSTAR":"0.00062955000000","ELEMENT_SET_NO":"999","CLASSIFICATION_TYPE":"U","NORAD_CAT_ID":"51966","MEAN_ANOMALY":"97.3266","CENTER_NAME":"EARTH","TLE_LINE2":"2 51966  53.2167 346.4276 0001625  47.9252  97.3266 15.08848923  1303","SEMIMAJOR_AXIS":"6917.853","MEAN_MOTION_DDOT":"0.0000000000000","GP_ID":"206790385","REF_FRAME":"TEME"}];
